ONEWEB-0350             
1 49214U 21083AE  25332.62127261  .00000205  00000+0  52673-3 0  9998
2 49214  87.8988   0.0880 0001474  88.2425 271.8873 13.13469322204603
ONEWEB-0351             
1 49215U 21083AF  25332.50370378  .00000161  00000+0  36423-3 0  9991
2 49215  87.9191 314.4593 0002511  71.0051 289.1355 13.20772729210286
ONEWEB-0352             
1 49216U 21083AG  25332.60181140  .00000268  00000+0  69851-3 0  9999
2 49216  87.8976   0.1159 0002100  85.8071 274.3298 13.13470316204692
ONEWEB-0354             
1 49217U 21083AH  25332.45332007  .00000045  00000+0  77945-4 0  9990
2 49217  87.9194 314.4679 0001540  81.8731 278.2577 13.20774143210312
ONEWEB-0355             
1 49218U 21083AJ  25332.63072300  .00000003  00000+0 -25420-4 0  9994
2 49218  87.8981   0.1231 0001748  86.0117 274.1212 13.13469366204576
ONEWEB-0357             
1 49219U 21083AK  25332.45017212 -.00000025  00000+0 -93881-4 0  9997
2 49219  87.9194 314.4649 0001838  79.9511 280.1830 13.20773738210318
ONEWEB-0332             
1 49279U 21090A   25332.49604116 -.00000199  00000+0 -57191-3 0  9995
2 49279  87.8977 329.7018 0002044  89.6795 270.4569 13.14502773201215
ONEWEB-0347             
1 49280U 21090B   25332.51646887  .00000179  00000+0  40898-3 0  9993
2 49280  87.9184 314.4633 0002060  92.5487 267.5882 13.20771933204559
